ONEWEB-0711             
1 55174U 23004AL  23059.58334491 -.01114343  00000+0 -38231+0 0  9991
2 55174  86.9264 265.2882 0010233  57.5830 174.0501 14.39322289  1304
ONEWEB-0711             
1 55174U 23004AL  23059.58334491 -.01114343  00000+0 -38231+0 0  9991
2 55174  86.9264 265.2882 0010233  57.5830 174.0501 14.39322289  7412
ONEWEB-0711             
1 55174U 23004AL  23059.91667824 -.01055871  00000+0 -37084+0 0  9992
2 55174  86.9310 265.1674 0010346  55.7439 101.5065 14.38509854  1308
ONEWEB-0711             
1 55174U 23004AL  23060.58334491 -.01114059  00000+0 -40038+0 0  9995
2 55174  86.9405 264.9297 0009977  53.6706 311.9759 14.36995673  7560
ONEWEB-0711             
1 55174U 23004AL  23060.91667824 -.01053343  00000+0 -38740+0 0  9996
2 55174  86.9453 264.8100 0009906  53.1851 235.2926 14.36185122  1303
ONEWEB-0711             
1 55174U 23004AL  23061.83334491 -.01099504  00000+0 -41829+0 0  9990
2 55174  86.9579 264.4850 0009735  49.6970 291.7393 14.34078687  1302
ONEWEB-0711             
1 55174U 23004AL  23061.83334491 -.01099504  00000+0 -41829+0 0  9990
2 55174  86.9579 264.4850 0009735  49.6970 291.7393 14.34078687  7746
ONEWEB-0711             
1 55174U 23004AL  23062.58334491 -.01117867  00000+0 -44021+0 0  9993
2 55174  86.9683 264.2218 0009746  49.1611 199.4909 14.32371775  1302
ONEWEB-0711             
1 55174U 23004AL  23062.91667824 -.01038834  00000+0 -41802+0 0  9999
2 55174  86.9729 264.1040 0009942  47.2547 118.6886 14.31558650  1305
ONEWEB-0711             
1 55174U 23004AL  23062.91667824 -.01038834  00000+0 -41802+0 0  9999
2 55174  86.9729 264.1040 0009942  47.2547 118.6886 14.31558650  7895
